*******************************************************************************
Ephemeris / WWW_USER Mon Mar 24 08:28:59 2025 Pasadena, USA      / Horizons    
*******************************************************************************
Target body name: (2018 VS8)                      {source: JPL#8}
Center body name: Earth (399)                     {source: DE441}
Center-site name: Mauna Kea
*******************************************************************************
Start time      : A.D. 2018-Sep-14 04:35:00.0000 UT      
Stop  time      : A.D. 2018-Sep-14 16:00:00.0000 UT      
Step-size       : 1 minutes
*******************************************************************************
Target pole/equ : undefined
Target radii    : undefined                                                    
Center geodetic : 204.5278, 19.8260847, 4.21024   {E-lon(deg),Lat(deg),Alt(km)}
Center cylindric: 204.5278, 6006.35451, 2151.0229 {E-lon(deg),Dxy(km),Dz(km)}
Center pole/equ : ITRF93                          {East-longitude positive}
Center radii    : 6378.137, 6378.137, 6356.752 km {Equator_a, b, pole_c}       
Target primary  : Sun
Vis. interferer : MOON (R_eq= 1737.400) km        {source: DE441}
Rel. light bend : Sun                             {source: DE441}
Rel. lght bnd GM: 1.3271E+11 km^3/s^2                                          
Small-body perts: Yes                             {source: SB441-N16}
Atmos refraction: NO (AIRLESS)
RA format       : HMS
Time format     : CAL 
Calendar mode   : Mixed Julian/Gregorian
RTS-only print  : NO       
EOP file        : eop.250321.p250617                                           
EOP coverage    : DATA-BASED 1962-JAN-20 TO 2025-MAR-21. PREDICTS-> 2025-JUN-16
Units conversion: 1 au= 149597870.700 km, c= 299792.458 km/s, 1 day= 86400.0 s 
Table cut-offs 1: Elevation (-90.0deg=NO ),Airmass (>38.000=NO), Daylight (YES)
Table cut-offs 2: Solar elongation (  0.0,180.0=NO ),Local Hour Angle( 0.0=NO )
Table cut-offs 3: RA/DEC angular rate (     0.0=NO )                           
*******************************************************************************
Initial IAU76/J2000 heliocentric ecliptic osculating elements (au, days, deg.):
  EPOCH=  2458433.5 ! 2018-Nov-11.00 (TDB)         Residual RMS= .33953        
   EC= .5263784885368822   QR= .9373233613851428   TP= 2458465.1575556668      
   OM= 53.89076972236643   W=  33.71683445616237   IN= 3.430463171034721       
  Equivalent ICRF heliocentric cartesian coordinates (au, au/d):
   X= 6.888560011548344E-01  Y= 6.928655939663307E-01  Z= 2.929974091538562E-01
  VX=-1.813811938800288E-02 VY= 8.693003909227039E-03 VZ= 5.111678677431928E-03
Asteroid physical parameters (km, seconds, rotational period in hours):        
   GM= n.a.                RAD= n.a.               ROTPER= n.a.                
   H= 27.2                 G= .150                 B-V= n.a.                   
                           ALBEDO= n.a.            STYP= n.a.                  
*******************************************************************************
 Date__(UT)__HR:MN     R.A._________(ICRF)_________DEC
******************************************************
$$SOE
 2018-Sep-14 10:44     01 20 36.882809 -01 12 14.43734
 2018-Sep-14 10:45     01 20 36.900594 -01 12 14.53771
 2018-Sep-14 10:46     01 20 36.918370 -01 12 14.63808
 2018-Sep-14 10:47     01 20 36.936136 -01 12 14.73845
 2018-Sep-14 10:48     01 20 36.953894 -01 12 14.83882
 2018-Sep-14 10:49     01 20 36.971642 -01 12 14.93918
 2018-Sep-14 10:50     01 20 36.989381 -01 12 15.03954
 2018-Sep-14 10:51     01 20 37.007111 -01 12 15.13990
 2018-Sep-14 10:52     01 20 37.024832 -01 12 15.24026
 2018-Sep-14 10:53     01 20 37.042544 -01 12 15.34062
 2018-Sep-14 10:54     01 20 37.060247 -01 12 15.44097
 2018-Sep-14 10:55     01 20 37.077943 -01 12 15.54133
 2018-Sep-14 10:56     01 20 37.095629 -01 12 15.64168
 2018-Sep-14 10:57     01 20 37.113307 -01 12 15.74203
 2018-Sep-14 10:58     01 20 37.130977 -01 12 15.84238
 2018-Sep-14 10:59     01 20 37.148639 -01 12 15.94273
 2018-Sep-14 11:00     01 20 37.166292 -01 12 16.04307
 2018-Sep-14 11:01     01 20 37.183938 -01 12 16.14342
 2018-Sep-14 11:02     01 20 37.201576 -01 12 16.24376
 2018-Sep-14 11:03     01 20 37.219206 -01 12 16.34410
 2018-Sep-14 11:04     01 20 37.236828 -01 12 16.44444
 2018-Sep-14 11:05     01 20 37.254443 -01 12 16.54477
 2018-Sep-14 11:06     01 20 37.272050 -01 12 16.64511
 2018-Sep-14 11:07     01 20 37.289650 -01 12 16.74544
 2018-Sep-14 11:08     01 20 37.307243 -01 12 16.84577
 2018-Sep-14 11:09     01 20 37.324828 -01 12 16.94610
 2018-Sep-14 11:10     01 20 37.342406 -01 12 17.04643
 2018-Sep-14 11:11     01 20 37.359978 -01 12 17.14675
 2018-Sep-14 11:12     01 20 37.377542 -01 12 17.24707
 2018-Sep-14 11:13     01 20 37.395100 -01 12 17.34740
 2018-Sep-14 11:14     01 20 37.412651 -01 12 17.44772
 2018-Sep-14 11:15     01 20 37.430195 -01 12 17.54803
 2018-Sep-14 11:16     01 20 37.447733 -01 12 17.64835
 2018-Sep-14 11:17     01 20 37.465265 -01 12 17.74866
 2018-Sep-14 11:18     01 20 37.482790 -01 12 17.84897
 2018-Sep-14 11:19     01 20 37.500309 -01 12 17.94928
 2018-Sep-14 11:20     01 20 37.517823 -01 12 18.04959
 2018-Sep-14 11:21     01 20 37.535330 -01 12 18.14990
 2018-Sep-14 11:22     01 20 37.552831 -01 12 18.25020
 2018-Sep-14 11:23     01 20 37.570327 -01 12 18.35051
 2018-Sep-14 11:24     01 20 37.587817 -01 12 18.45081
 2018-Sep-14 11:25     01 20 37.605301 -01 12 18.55110
 2018-Sep-14 11:26     01 20 37.622780 -01 12 18.65140
 2018-Sep-14 11:27     01 20 37.640254 -01 12 18.75169
 2018-Sep-14 11:28     01 20 37.657722 -01 12 18.85199
 2018-Sep-14 11:29     01 20 37.675185 -01 12 18.95228
 2018-Sep-14 11:30     01 20 37.692643 -01 12 19.05256
 2018-Sep-14 11:31     01 20 37.710097 -01 12 19.15285
 2018-Sep-14 11:32     01 20 37.727545 -01 12 19.25313
 2018-Sep-14 11:33     01 20 37.744989 -01 12 19.35342
 2018-Sep-14 11:34     01 20 37.762428 -01 12 19.45370
 2018-Sep-14 11:35     01 20 37.779862 -01 12 19.55397
 2018-Sep-14 11:36     01 20 37.797293 -01 12 19.65425
 2018-Sep-14 11:37     01 20 37.814719 -01 12 19.75452
 2018-Sep-14 11:38     01 20 37.832140 -01 12 19.85479
 2018-Sep-14 11:39     01 20 37.849558 -01 12 19.95506
 2018-Sep-14 11:40     01 20 37.866971 -01 12 20.05533
 2018-Sep-14 11:41     01 20 37.884381 -01 12 20.15560
 2018-Sep-14 11:42     01 20 37.901787 -01 12 20.25586
 2018-Sep-14 11:43     01 20 37.919189 -01 12 20.35612
 2018-Sep-14 11:44     01 20 37.936588 -01 12 20.45638
 2018-Sep-14 11:45     01 20 37.953983 -01 12 20.55664
 2018-Sep-14 11:46     01 20 37.971375 -01 12 20.65689
 2018-Sep-14 11:47     01 20 37.988763 -01 12 20.75714
 2018-Sep-14 11:48     01 20 38.006149 -01 12 20.85739
 2018-Sep-14 11:49     01 20 38.023531 -01 12 20.95764
 2018-Sep-14 11:50     01 20 38.040910 -01 12 21.05789
 2018-Sep-14 11:51     01 20 38.058287 -01 12 21.15813
 2018-Sep-14 11:52     01 20 38.075661 -01 12 21.25837
 2018-Sep-14 11:53     01 20 38.093032 -01 12 21.35861
 2018-Sep-14 11:54     01 20 38.110401 -01 12 21.45885
 2018-Sep-14 11:55     01 20 38.127767 -01 12 21.55909
 2018-Sep-14 11:56     01 20 38.145131 -01 12 21.65932
 2018-Sep-14 11:57     01 20 38.162492 -01 12 21.75955
 2018-Sep-14 11:58     01 20 38.179852 -01 12 21.85978
 2018-Sep-14 11:59     01 20 38.197210 -01 12 21.96001
 2018-Sep-14 12:00     01 20 38.214565 -01 12 22.06023
 2018-Sep-14 12:01     01 20 38.231919 -01 12 22.16045
 2018-Sep-14 12:02     01 20 38.249271 -01 12 22.26067
 2018-Sep-14 12:03     01 20 38.266622 -01 12 22.36089
 2018-Sep-14 12:04     01 20 38.283971 -01 12 22.46111
 2018-Sep-14 12:05     01 20 38.301319 -01 12 22.56132
 2018-Sep-14 12:06     01 20 38.318665 -01 12 22.66153
 2018-Sep-14 12:07     01 20 38.336010 -01 12 22.76174
 2018-Sep-14 12:08     01 20 38.353355 -01 12 22.86195
 2018-Sep-14 12:09     01 20 38.370698 -01 12 22.96215
 2018-Sep-14 12:10  t  01 20 38.388040 -01 12 23.06235
 2018-Sep-14 12:11     01 20 38.405382 -01 12 23.16255
 2018-Sep-14 12:12     01 20 38.422723 -01 12 23.26275
 2018-Sep-14 12:13     01 20 38.440064 -01 12 23.36295
 2018-Sep-14 12:14     01 20 38.457404 -01 12 23.46314
 2018-Sep-14 12:15     01 20 38.474744 -01 12 23.56333
 2018-Sep-14 12:16     01 20 38.492083 -01 12 23.66352
 2018-Sep-14 12:17     01 20 38.509423 -01 12 23.76371
 2018-Sep-14 12:18     01 20 38.526762 -01 12 23.86389
 2018-Sep-14 12:19     01 20 38.544102 -01 12 23.96407
 2018-Sep-14 12:20     01 20 38.561441 -01 12 24.06425
 2018-Sep-14 12:21     01 20 38.578781 -01 12 24.16443
 2018-Sep-14 12:22     01 20 38.596122 -01 12 24.26461
 2018-Sep-14 12:23     01 20 38.613463 -01 12 24.36478
 2018-Sep-14 12:24     01 20 38.630804 -01 12 24.46495
 2018-Sep-14 12:25     01 20 38.648147 -01 12 24.56512
 2018-Sep-14 12:26     01 20 38.665490 -01 12 24.66529
 2018-Sep-14 12:27     01 20 38.682834 -01 12 24.76545
 2018-Sep-14 12:28     01 20 38.700179 -01 12 24.86561
 2018-Sep-14 12:29     01 20 38.717525 -01 12 24.96577
 2018-Sep-14 12:30     01 20 38.734873 -01 12 25.06593
 2018-Sep-14 12:31     01 20 38.752222 -01 12 25.16609
 2018-Sep-14 12:32     01 20 38.769572 -01 12 25.26624
 2018-Sep-14 12:33     01 20 38.786924 -01 12 25.36639
 2018-Sep-14 12:34     01 20 38.804278 -01 12 25.46654
 2018-Sep-14 12:35     01 20 38.821633 -01 12 25.56669
 2018-Sep-14 12:36     01 20 38.838991 -01 12 25.66683
 2018-Sep-14 12:37     01 20 38.856350 -01 12 25.76697
 2018-Sep-14 12:38     01 20 38.873711 -01 12 25.86711
 2018-Sep-14 12:39     01 20 38.891075 -01 12 25.96725
 2018-Sep-14 12:40     01 20 38.908441 -01 12 26.06739
 2018-Sep-14 12:41     01 20 38.925809 -01 12 26.16752
 2018-Sep-14 12:42     01 20 38.943180 -01 12 26.26765
 2018-Sep-14 12:43     01 20 38.960553 -01 12 26.36778
 2018-Sep-14 12:44     01 20 38.977930 -01 12 26.46791
 2018-Sep-14 12:45     01 20 38.995309 -01 12 26.56803
 2018-Sep-14 12:46     01 20 39.012691 -01 12 26.66815
